[{"OBJECT_NAME":"STARLINK-31114","OBJECT_ID":"2024-011B","EPOCH":"2026-03-09T06:23:51.437184","MEAN_MOTION":15.30192842,"ECCENTRICITY":0.0001084,"INCLINATION":53.1615,"RA_OF_ASC_NODE":13.6666,"ARG_OF_PERICENTER":87.3657,"MEAN_ANOMALY":272.7468,"EPHEMERIS_TYPE":0,"CLASSIFICATION_TYPE":"U","NORAD_CAT_ID":58766,"ELEMENT_SET_NO":999,"REV_AT_EPOCH":12023,"BSTAR":-9.084718e-6,"MEAN_MOTION_DOT":-6.28e-6,"MEAN_MOTION_DDOT":0},{"OBJECT_NAME":"MESON-1","OBJECT_ID":"2024-043AK","EPOCH":"2026-03-09T21:36:16.481664","MEAN_MOTION":15.29893494,"ECCENTRICITY":0.00095452,"INCLINATION":97.5469,"RA_OF_ASC_NODE":205.2839,"ARG_OF_PERICENTER":227.1432,"MEAN_ANOMALY":132.9007,"EPHEMERIS_TYPE":0,"CLASSIFICATION_TYPE":"U","NORAD_CAT_ID":59131,"ELEMENT_SET_NO":999,"REV_AT_EPOCH":11189,"BSTAR":0.0002974823,"MEAN_MOTION_DOT":8.544e-5,"MEAN_MOTION_DDOT":0}]
